{
  "norad_id": 44323,
  "name": "RCM-3",
  "history": [
    {
      "epoch": "2026-03-27T13:41:36.614688",
      "apogee_km": 590.823487395739,
      "perigee_km": 588.9031065138979,
      "latitude_deg": 78.81294432767977,
      "longitude_deg": 11.074016320053488,
      "semi_major_axis_km": 6968.000296954818,
      "eccentricity": 0.0001378,
      "inclination_deg": 97.7594,
      "raan_deg": 95.2644,
      "arg_perigee_deg": 89.9284,
      "mean_anomaly_deg": 270.2093,
      "mean_motion_rev_day": 14.92589978
    }
  ]
}